{
  "norad_id": 67838,
  "name": "STARLINK-36654",
  "history": [
    {
      "epoch": "2026-03-28T22:00:01.999584Z",
      "apogee_km": 481.46721058878666,
      "perigee_km": 479.60631522343556,
      "latitude_deg": -18.76191328394427,
      "longitude_deg": -18.964889422379454,
      "height_km": 484.1594465402258,
      "semi_major_axis_km": 6858.673762906111,
      "eccentricity": 0.00013566,
      "inclination_deg": 43.0016,
      "raan_deg": 158.6113,
      "arg_perigee_deg": 268.4707,
      "mean_anomaly_deg": 63.6149,
      "mean_motion_rev_day": 15.28419406
    },
    {
      "epoch": "2026-03-29T04:00:01.999584Z",
      "apogee_km": 481.73983660647446,
      "perigee_km": 479.5326833714089,
      "latitude_deg": -43.15523328208396,
      "longitude_deg": 179.63036247727183,
      "height_km": 492.89898974682444,
      "semi_major_axis_km": 6858.773259988941,
      "eccentricity": 0.0001609,
      "inclination_deg": 43.0013,
      "raan_deg": 157.198,
      "arg_perigee_deg": 258.4887,
      "mean_anomaly_deg": 10.7878,
      "mean_motion_rev_day": 15.28386148
    },
    {
      "epoch": "2026-03-30T00:00:01.999296Z",
      "apogee_km": 481.56209196078544,
      "perigee_km": 479.6512459746109,
      "latitude_deg": 0.03243673285612023,
      "longitude_deg": 145.04453156940974,
      "height_km": 480.2297441703096,
      "semi_major_axis_km": 6858.743668967698,
      "eccentricity": 0.0001393,
      "inclination_deg": 43.0017,
      "raan_deg": 152.4855,
      "arg_perigee_deg": 260.9482,
      "mean_anomaly_deg": 278.9351,
      "mean_motion_rev_day": 15.28396039
    },
    {
      "epoch": "2026-03-30T00:00:02.000160Z",
      "apogee_km": 481.56181761103926,
      "perigee_km": 479.651520324358,
      "latitude_deg": 0.03243362605418533,
      "longitude_deg": 145.04453127257972,
      "height_km": 480.22978710214784,
      "semi_major_axis_km": 6858.743668967698,
      "eccentricity": 0.00013926,
      "inclination_deg": 43.0017,
      "raan_deg": 152.4855,
      "arg_perigee_deg": 260.9482,
      "mean_anomaly_deg": 278.9351,
      "mean_motion_rev_day": 15.28396039
    },
    {
      "epoch": "2026-03-30T11:45:53.331840Z",
      "apogee_km": 482.2361123721912,
      "perigee_km": 478.7906007790625,
      "latitude_deg": -3.423807597940528e-05,
      "longitude_deg": 145.36065887887673,
      "height_km": 480.3475258384479,
      "semi_major_axis_km": 6858.650356575627,
      "eccentricity": 0.00025118,
      "inclination_deg": 42.9957,
      "raan_deg": 149.7141,
      "arg_perigee_deg": 92.0731,
      "mean_anomaly_deg": 268.0408,
      "mean_motion_rev_day": 15.2842723
    },
    {
      "epoch": "2026-03-30T21:10:29.218368Z",
      "apogee_km": 482.93626382673847,
      "perigee_km": 478.0499014106781,
      "latitude_deg": 1.8186048811054884e-05,
      "longitude_deg": 1.606334371249288,
      "height_km": 480.51138707194866,
      "semi_major_axis_km": 6858.630082618708,
      "eccentricity": 0.00035622,
      "inclination_deg": 43.0001,
      "raan_deg": 147.4957,
      "arg_perigee_deg": 264.3567,
      "mean_anomaly_deg": 95.6879,
      "mean_motion_rev_day": 15.28434007
    },
    {
      "epoch": "2026-03-31T05:01:01.370496Z",
      "apogee_km": 481.3768776488041,
      "perigee_km": 479.60803711174594,
      "latitude_deg": -1.9509743503711667e-05,
      "longitude_deg": -118.19624295634844,
      "height_km": 480.8259406831341,
      "semi_major_axis_km": 6858.629457380275,
      "eccentricity": 0.00012895,
      "inclination_deg": 43.0015,
      "raan_deg": 145.6492,
      "arg_perigee_deg": 230.9556,
      "mean_anomaly_deg": 129.1181,
      "mean_motion_rev_day": 15.28434216
    },
    {
      "epoch": "2026-04-02T19:47:10.557600Z",
      "apogee_km": 483.0524420307711,
      "perigee_km": 482.90835856536523,
      "latitude_deg": -9.064763171529299e-06,
      "longitude_deg": 2.9130512899425454,
      "height_km": 482.68678207488745,
      "semi_major_axis_km": 6861.117400298068,
      "eccentricity": 1.05e-05,
      "inclination_deg": 42.9981,
      "raan_deg": 130.8746,
      "arg_perigee_deg": 17.2765,
      "mean_anomaly_deg": 342.809,
      "mean_motion_rev_day": 15.27602942
    },
    {
      "epoch": "2026-04-02T19:47:10.559328Z",
      "apogee_km": 483.0525792531198,
      "perigee_km": 482.9082213430165,
      "latitude_deg": -9.52981453938634e-06,
      "longitude_deg": 2.9130435742447145,
      "height_km": 482.68665106191446,
      "semi_major_axis_km": 6861.117400298068,
      "eccentricity": 1.052e-05,
      "inclination_deg": 42.9981,
      "raan_deg": 130.8746,
      "arg_perigee_deg": 17.2765,
      "mean_anomaly_deg": 342.809,
      "mean_motion_rev_day": 15.27602942
    },
    {
      "epoch": "2026-04-03T20:00:01.999008Z",
      "apogee_km": 484.29495039253925,
      "perigee_km": 482.0759987042693,
      "latitude_deg": 16.81891321613966,
      "longitude_deg": 154.20234092138614,
      "height_km": 483.0172175357717,
      "semi_major_axis_km": 6861.322474548404,
      "eccentricity": 0.0001617,
      "inclination_deg": 43.0006,
      "raan_deg": 125.1781,
      "arg_perigee_deg": 283.7747,
      "mean_anomaly_deg": 231.2042,
      "mean_motion_rev_day": 15.27534456
    },
    {
      "epoch": "2026-04-04T20:00:01.999008Z",
      "apogee_km": 483.9580846096633,
      "perigee_km": 482.160451187473,
      "latitude_deg": -42.44959338916686,
      "longitude_deg": -116.3414639919518,
      "height_km": 495.27142610324745,
      "semi_major_axis_km": 6861.196267898567,
      "eccentricity": 0.000131,
      "inclination_deg": 43.0008,
      "raan_deg": 119.5305,
      "arg_perigee_deg": 280.6726,
      "mean_anomaly_deg": 339.9436,
      "mean_motion_rev_day": 15.27576603
    },
    {
      "epoch": "2026-04-05T14:00:03.000384Z",
      "apogee_km": 483.95474461555114,
      "perigee_km": 482.17357679423185,
      "latitude_deg": 40.00224594454682,
      "longitude_deg": 134.89341121922152,
      "height_km": 486.2087511529735,
      "semi_major_axis_km": 6861.201160704891,
      "eccentricity": 0.0001298,
      "inclination_deg": 43.0005,
      "raan_deg": 115.296,
      "arg_perigee_deg": 290.5025,
      "mean_anomaly_deg": 139.4727,
      "mean_motion_rev_day": 15.27574969
    },
    {
      "epoch": "2026-04-05T20:00:03.000384Z",
      "apogee_km": 483.82464336843987,
      "perigee_km": 482.2012952856967,
      "latitude_deg": 4.349932011963242,
      "longitude_deg": -15.610347809341977,
      "height_km": 482.32872128097375,
      "semi_major_axis_km": 6861.149969327068,
      "eccentricity": 0.0001183,
      "inclination_deg": 43.0009,
      "raan_deg": 113.8826,
      "arg_perigee_deg": 276.424,
      "mean_anomaly_deg": 89.9943,
      "mean_motion_rev_day": 15.27592065
    },
    {
      "epoch": "2026-04-06T02:15:00.724896Z",
      "apogee_km": 483.49417863791496,
      "perigee_km": 482.4603459408736,
      "latitude_deg": -5.3115130962756016e-05,
      "longitude_deg": -115.72932833481914,
      "height_km": 482.4331098488339,
      "semi_major_axis_km": 6861.114262289394,
      "eccentricity": 7.534e-05,
      "inclination_deg": 43.0004,
      "raan_deg": 112.4137,
      "arg_perigee_deg": 308.2802,
      "mean_anomaly_deg": 51.7981,
      "mean_motion_rev_day": 15.2760399
    },
    {
      "epoch": "2026-04-07T11:12:16.989984Z",
      "apogee_km": 484.2890901780538,
      "perigee_km": 481.7326264860403,
      "latitude_deg": -3.9087605515764876e-05,
      "longitude_deg": 100.84211784220348,
      "height_km": 483.01470285471856,
      "semi_major_axis_km": 6861.147858332047,
      "eccentricity": 0.0001863,
      "inclination_deg": 43.0018,
      "raan_deg": 104.6563,
      "arg_perigee_deg": 259.7877,
      "mean_anomaly_deg": 100.2764,
      "mean_motion_rev_day": 15.2759277
    },
    {
      "epoch": "2026-04-07T17:28:55.326432Z",
      "apogee_km": 483.18328927265156,
      "perigee_km": 482.94040283350205,
      "latitude_deg": 2.169286247945501e-05,
      "longitude_deg": 4.948746501994325,
      "height_km": 482.73949956284457,
      "semi_major_axis_km": 6861.1988460530765,
      "eccentricity": 1.77e-05,
      "inclination_deg": 42.994,
      "raan_deg": 103.1804,
      "arg_perigee_deg": 37.0007,
      "mean_anomaly_deg": 323.0857,
      "mean_motion_rev_day": 15.27575742
    },
    {
      "epoch": "2026-04-08T10:44:38.750208Z",
      "apogee_km": 483.5405001380541,
      "perigee_km": 482.499937034283,
      "latitude_deg": 3.495299757378684e-05,
      "longitude_deg": 101.24639835721152,
      "height_km": 482.79018572774646,
      "semi_major_axis_km": 6861.157218586168,
      "eccentricity": 7.583e-05,
      "inclination_deg": 43.0001,
      "raan_deg": 99.1179,
      "arg_perigee_deg": 89.4897,
      "mean_anomaly_deg": 270.6042,
      "mean_motion_rev_day": 15.27589644
    },
    {
      "epoch": "2026-04-09T10:16:58.866240Z",
      "apogee_km": 483.69150082933174,
      "perigee_km": 482.324897928519,
      "latitude_deg": -2.322468404475728e-05,
      "longitude_deg": 101.6569074259158,
      "height_km": 482.864743137418,
      "semi_major_axis_km": 6861.145199378925,
      "eccentricity": 9.959e-05,
      "inclination_deg": 43.004,
      "raan_deg": 93.579,
      "arg_perigee_deg": 263.2969,
      "mean_anomaly_deg": 96.7769,
      "mean_motion_rev_day": 15.27593658
    },
    {
      "epoch": "2026-04-10T09:49:20.913312Z",
      "apogee_km": 484.20891677795044,
      "perigee_km": 481.9515763038389,
      "latitude_deg": -1.1669670685727975e-05,
      "longitude_deg": 102.05822313952125,
      "height_km": 482.8617246266509,
      "semi_major_axis_km": 6861.217246540895,
      "eccentricity": 0.0001645,
      "inclination_deg": 43.005,
      "raan_deg": 88.0389,
      "arg_perigee_deg": 269.796,
      "mean_anomaly_deg": 90.2703,
      "mean_motion_rev_day": 15.27569597
    },
    {
      "epoch": "2026-04-11T15:38:20.068224Z",
      "apogee_km": 483.76834090447755,
      "perigee_km": 482.2780969049327,
      "latitude_deg": 5.0494973253471536e-05,
      "longitude_deg": 6.572390859711368,
      "height_km": 482.8283765923846,
      "semi_major_axis_km": 6861.160218904705,
      "eccentricity": 0.0001086,
      "inclination_deg": 43.0009,
      "raan_deg": 81.024,
      "arg_perigee_deg": 267.7977,
      "mean_anomaly_deg": 92.2751,
      "mean_motion_rev_day": 15.27588642
    }
  ]
}